OBJECT_NAME,OBJECT_ID,EPOCH,MEAN_MOTION,ECCENTRICITY,INCLINATION,RA_OF_ASC_NODE,ARG_OF_PERICENTER,MEAN_ANOMALY,EPHEMERIS_TYPE,CLASSIFICATION_TYPE,NORAD_CAT_ID,ELEMENT_SET_NO,REV_AT_EPOCH,BSTAR,MEAN_MOTION_DOT,MEAN_MOTION_DDOT
HODOYOSHI-4,2014-033B,2026-06-17T12:06:50.501088,14.88126295,.0022536,97.5445,353.3114,307.3872,52.5293,0,U,40011,999,64885,.29301E-4,.218E-5,0
DEIMOS-2,2014-033D,2026-06-17T12:26:03.285312,14.93723770,.0001361,97.5824,42.9951,49.5290,310.6049,0,U,40013,999,63777,.85567E-4,.851E-5,0
HODOYOSHI-3,2014-033F,2026-06-17T10:54:26.245152,14.85389004,.0032669,97.6417,331.4841,356.4429,3.6549,0,U,40015,999,64766,.98331E-4,.801E-5,0
SPOT 7,2014-034A,2026-06-17T12:34:35.575104,14.60959309,.0001232,98.0631,231.0072,92.1082,268.0260,0,U,40053,999,63718,.1105E-3,.496E-5,0
SKYSAT-B,2014-037D,2026-06-17T11:04:20.938080,14.88028421,.000419,98.3840,127.4419,280.7162,79.3581,0,U,40072,999,64600,.12167E-3,.1056E-4,0
WORLDVIEW-3 (WV-3),2014-048A,2026-06-17T12:06:08.571168,14.85022396,.000096,97.8567,243.3328,25.6962,334.4301,0,U,40115,999,64195,.84221E-4,.665E-5,0
GAOFEN-2,2014-049A,2026-06-17T12:20:25.846656,14.80897366,.0006124,98.0112,232.7210,225.8422,134.2287,0,U,40118,999,63928,.15921E-4,.7E-6,0
YAOGAN-21,2014-053A,2026-06-17T11:46:10.000992,15.26383393,.0010021,97.1467,208.7133,92.5416,267.6971,0,U,40143,999,65500,.37362E-3,.9666E-4,0
YAOGAN-22,2014-063A,2026-06-17T09:55:55.884000,13.15531084,.0006345,100.7724,319.6908,184.7554,175.3498,0,U,40275,999,55984,-.44091E-4,-.63E-6,0
ASNARO,2014-070A,2026-06-17T11:43:32.428992,15.19442218,.0005686,97.3453,244.5952,164.5324,195.6086,0,U,40298,999,64405,.4479E-3,.9435E-4,0
YAOGAN-24,2014-072A,2026-06-17T13:21:27.324000,14.76223940,.0012521,98.1492,305.8974,262.1889,97.7899,0,U,40310,999,62377,.10762E-3,.692E-5,0
CBERS 4,2014-079A,2026-06-17T12:36:10.844064,14.35510062,.0001858,98.3532,225.3463,63.3703,296.7673,0,U,40336,999,60400,.13799E-3,.355E-5,0
YAOGAN-26,2014-088A,2026-06-17T12:31:04.641600,15.47362251,.0005935,97.0638,168.7223,66.6987,293.4888,0,U,40362,999,63775,.33745E-3,.17187E-3,0
SMAP,2015-003A,2026-06-17T11:45:49.004064,14.63366831,.0001333,98.1276,175.5803,96.9512,263.1841,0,U,40376,999,60766,.72621E-4,.328E-5,0
KOMPSAT-3A,2015-014A,2026-06-17T11:59:10.407264,15.54004933,.00565,97.6886,159.8845,173.3596,186.8418,0,U,40536,999,62186,.28942E-3,.19977E-3,0
SENTINEL-2A,2015-028A,2026-06-17T11:51:57.156192,14.30815581,.0001111,98.5689,243.3417,90.6331,269.4979,0,U,40697,999,57377,.72693E-4,.147E-5,0
GAOFEN-8,2015-030A,2026-06-17T12:58:49.518624,15.45965759,.0008746,97.6899,1.9321,185.2278,174.8880,0,U,40701,999,61150,.39406E-3,.19152E-3,0
CARBONITE 1 (CBNT-1),2015-032D,2026-06-17T12:28:25.537728,14.83587902,.0013149,97.6500,346.5716,296.8208,63.1662,0,U,40718,999,58939,.17526E-3,.1395E-4,0
YAOGAN-27,2015-040A,2026-06-17T11:37:56.880768,13.16070091,.0007664,100.1146,154.8546,209.7285,150.3394,0,U,40878,999,51770,.7683E-3,.249E-5,0
GAOFEN-9 01,2015-047A,2026-06-17T12:50:17.493216,14.82884396,.002842,97.6275,204.2140,136.7136,223.6318,0,U,40894,999,58024,.10342E-3,.793E-5,0
YAOGAN-28,2015-064A,2026-06-17T12:27:46.649952,15.27424730,.0010641,97.3080,306.7736,182.1043,178.0153,0,U,41026,999,59073,.22112E-3,.5872E-4,0
YAOGAN-29,2015-069A,2026-06-17T12:21:49.067136,14.83088558,.0002633,98.0021,197.1486,55.0281,305.1180,0,U,41038,999,57067,.14321E-3,.1112E-4,0
KENT RIDGE 1,2015-077B,2026-06-16T21:38:07.994688,15.23131198,.0008236,14.9789,268.1169,234.6113,125.3439,0,U,41167,999,58105,.11248E-3,.35E-4,0
GAOFEN-4,2015-083A,2026-06-16T18:39:00.975168,1.00268878,.0004378,0.3561,83.7666,115.3857,91.3346,0,U,41194,999,3852,0,-.337E-5,0
JASON-3,2016-002A,2026-06-17T11:14:51.324576,12.87628066,.0008513,66.0403,125.2431,272.8021,87.2023,0,U,41240,999,48728,.2202E-4,-.57E-6,0
SENTINEL-3A,2016-011A,2026-06-17T11:55:47.083872,14.26740073,.0001407,98.6250,235.8763,101.9830,258.1508,0,U,41335,999,53810,.54891E-4,.89E-6,0
ZIYUAN 3-02 (ZY 3-02),2016-033A,2026-06-17T12:26:41.087904,15.21484140,.0011163,97.3835,244.2874,288.2984,71.7037,0,U,41556,999,55803,.18207E-3,.4031E-4,0
CARTOSAT-2C,2016-040A,2026-06-17T12:31:05.065824,15.19194510,.0009997,97.4480,228.4960,129.2147,230.9977,0,U,41599,999,55376,.20412E-3,.4232E-4,0
SKYSAT-C1,2016-040C,2026-06-17T02:03:57.254976,15.36299967,.0003482,96.9554,199.8114,58.3671,301.7914,0,U,41601,999,55785,.20723E-3,.726E-4,0
LAPAN-A3,2016-040E,2026-06-17T12:25:12.340416,15.33106312,.0010853,97.1488,164.6522,24.8110,335.3652,0,U,41603,999,55486,.89264E-4,.2784E-4,0
GAOFEN-3,2016-049A,2026-06-17T12:00:21.091104,14.42216413,.0001394,98.4003,176.2815,98.7779,261.3569,0,U,41727,999,51869,.83384E-4,.231E-5,0
