HODOYOSHI-4             
1 40011U 14033B   26168.50475117  .00000218  00000+0  29301-4 0  9999
2 40011  97.5445 353.3114 0022536 307.3872  52.5293 14.88126295648853
DEIMOS-2                
1 40013U 14033D   26168.51809358  .00000851  00000+0  85567-4 0  9999
2 40013  97.5824  42.9951 0001361  49.5290 310.6049 14.93723770637771
HODOYOSHI-3             
1 40015U 14033F   26168.45447043  .00000801  00000+0  98331-4 0  9991
2 40015  97.6417 331.4841 0032669 356.4429   3.6549 14.85389004647667
SPOT 7                  
1 40053U 14034A   26168.52402286  .00000496  00000+0  11050-3 0  9994
2 40053  98.0631 231.0072 0001232  92.1082 268.0260 14.60959309637181
SKYSAT-B                
1 40072U 14037D   26168.46135345  .00001056  00000+0  12167-3 0  9993
2 40072  98.3840 127.4419 0004190 280.7162  79.3581 14.88028421646002
WORLDVIEW-3 (WV-3)      
1 40115U 14048A   26168.50426587  .00000665  00000+0  84221-4 0  9995
2 40115  97.8567 243.3328 0000960  25.6962 334.4301 14.85022396641958
GAOFEN-2                
1 40118U 14049A   26168.51418804  .00000070  00000+0  15921-4 0  9994
2 40118  98.0112 232.7210 0006124 225.8422 134.2287 14.80897366639289
YAOGAN-21               
1 40143U 14053A   26168.49039353  .00009666  00000+0  37362-3 0  9994
2 40143  97.1467 208.7133 0010021  92.5416 267.6971 15.26383393655000
YAOGAN-22               
1 40275U 14063A   26168.41384125 -.00000063  00000+0 -44091-4 0  9995
2 40275 100.7724 319.6908 0006345 184.7554 175.3498 13.15531084559848
ASNARO                  
1 40298U 14070A   26168.48856978  .00009435  00000+0  44790-3 0  9990
2 40298  97.3453 244.5952 0005686 164.5324 195.6086 15.19442218644058
YAOGAN-24               
1 40310U 14072A   26168.55656625  .00000692  00000+0  10762-3 0  9990
2 40310  98.1492 305.8974 0012521 262.1889  97.7899 14.76223940623778
CBERS 4                 
1 40336U 14079A   26168.52512551  .00000355  00000+0  13799-3 0  9990
2 40336  98.3532 225.3463 0001858  63.3703 296.7673 14.35510062604004
YAOGAN-26               
1 40362U 14088A   26168.52158150  .00017187  00000+0  33745-3 0  9994
2 40362  97.0638 168.7223 0005935  66.6987 293.4888 15.47362251637759
SMAP                    
1 40376U 15003A   26168.49015051  .00000328  00000+0  72621-4 0  9991
2 40376  98.1276 175.5803 0001333  96.9512 263.1841 14.63366831607667
KOMPSAT-3A              
1 40536U 15014A   26168.49942601  .00019977  00000+0  28942-3 0  9997
2 40536  97.6886 159.8845 0056500 173.3596 186.8418 15.54004933621867
SENTINEL-2A             
1 40697U 15028A   26168.49441153  .00000147  00000+0  72693-4 0  9998
2 40697  98.5689 243.3417 0001111  90.6331 269.4979 14.30815581573774
GAOFEN-8                
1 40701U 15030A   26168.54085091  .00019152  00000+0  39406-3 0  9998
2 40701  97.6899   1.9321 0008746 185.2278 174.8880 15.45965759611501
CARBONITE 1 (CBNT-1)    
1 40718U 15032D   26168.51974002  .00001395  00000+0  17526-3 0  9993
2 40718  97.6500 346.5716 0013149 296.8208  63.1662 14.83587902589399
YAOGAN-27               
1 40878U 15040A   26168.48468612  .00000249  00000+0  76830-3 0  9990
2 40878 100.1146 154.8546 0007664 209.7285 150.3394 13.16070091517704
GAOFEN-9 01             
1 40894U 15047A   26168.53492469  .00000793  00000+0  10342-3 0  9998
2 40894  97.6275 204.2140 0028420 136.7136 223.6318 14.82884396580246
YAOGAN-28               
1 41026U 15064A   26168.51928993  .00005872  00000+0  22112-3 0  9990
2 41026  97.3080 306.7736 0010641 182.1043 178.0153 15.27424730590739
YAOGAN-29               
1 41038U 15069A   26168.51515124  .00001112  00000+0  14321-3 0  9992
2 41038  98.0021 197.1486 0002633  55.0281 305.1180 14.83088558570672
KENT RIDGE 1            
1 41167U 15077B   26167.90148142  .00003500  00000+0  11248-3 0  9996
2 41167  14.9789 268.1169 0008236 234.6113 125.3439 15.23131198581051
GAOFEN-4                
1 41194U 15083A   26167.77709462 -.00000337  00000+0  00000+0 0  9992
2 41194   0.3561  83.7666 0004378 115.3857  91.3346  1.00268878 38528
JASON-3                 
1 41240U 16002A   26168.46864959 -.00000057  00000+0  22020-4 0  9996
2 41240  66.0403 125.2431 0008513 272.8021  87.2023 12.87628066487286
SENTINEL-3A             
1 41335U 16011A   26168.49707273  .00000089  00000+0  54891-4 0  9994
2 41335  98.6250 235.8763 0001407 101.9830 258.1508 14.26740073538106
ZIYUAN 3-02 (ZY 3-02)   
1 41556U 16033A   26168.51853111  .00004031  00000+0  18207-3 0  9990
2 41556  97.3835 244.2874 0011163 288.2984  71.7037 15.21484140558038
CARTOSAT-2C             
1 41599U 16040A   26168.52158641  .00004232  00000+0  20412-3 0  9996
2 41599  97.4480 228.4960 0009997 129.2147 230.9977 15.19194510553762
SKYSAT-C1               
1 41601U 16040C   26168.08607934  .00007260  00000+0  20723-3 0  9994
2 41601  96.9554 199.8114 0003482  58.3671 301.7914 15.36299967557854
LAPAN-A3                
1 41603U 16040E   26168.51750394  .00002784  00000+0  89264-4 0  9995
2 41603  97.1488 164.6522 0010853  24.8110 335.3652 15.33106312554862
GAOFEN-3                
1 41727U 16049A   26168.50024411  .00000231  00000+0  83384-4 0  9996
2 41727  98.4003 176.2815 0001394  98.7779 261.3569 14.42216413518690
